SEEDS II (CO-66)        
1 32791U 08021J   26068.92109284  .00023758  00000+0  84213-3 0  9995
2 32791  97.7519  62.3611 0001448 359.2618   0.8619 15.29097235972108
STARLINK-32387          
1 61704U 24195T   26068.53557918 -.00004659  00000+0 -14528-3 0  9992
2 61704  53.1607 155.6626 0001034  95.1423 264.9696 15.30196832 77166
