[{"OBJECT_NAME":"SEEDS II (CO-66)","OBJECT_ID":"2008-021J","EPOCH":"2026-03-09T22:06:22.421376","MEAN_MOTION":15.29097236,"ECCENTRICITY":0.00014475,"INCLINATION":97.7519,"RA_OF_ASC_NODE":62.3611,"ARG_OF_PERICENTER":359.2618,"MEAN_ANOMALY":0.8619,"EPHEMERIS_TYPE":0,"CLASSIFICATION_TYPE":"U","NORAD_CAT_ID":32791,"ELEMENT_SET_NO":999,"REV_AT_EPOCH":97210,"BSTAR":0.00084213052,"MEAN_MOTION_DOT":0.00023758,"MEAN_MOTION_DDOT":0},{"OBJECT_NAME":"STARLINK-32387","OBJECT_ID":"2024-195T","EPOCH":"2026-03-09T12:51:14.041152","MEAN_MOTION":15.30196832,"ECCENTRICITY":0.00010346,"INCLINATION":53.1607,"RA_OF_ASC_NODE":155.6626,"ARG_OF_PERICENTER":95.1423,"MEAN_ANOMALY":264.9696,"EPHEMERIS_TYPE":0,"CLASSIFICATION_TYPE":"U","NORAD_CAT_ID":61704,"ELEMENT_SET_NO":999,"REV_AT_EPOCH":7716,"BSTAR":-0.00014527991,"MEAN_MOTION_DOT":-4.659e-5,"MEAN_MOTION_DDOT":0}]
